[{"OBJECT_NAME":"ONEWEB-0542","OBJECT_ID":"2022-166E","EPOCH":"2026-03-09T21:52:20.359200","MEAN_MOTION":13.21823683,"ECCENTRICITY":0.00012716,"INCLINATION":87.9173,"RA_OF_ASC_NODE":263.759,"ARG_OF_PERICENTER":92.3649,"MEAN_ANOMALY":267.763,"EPHEMERIS_TYPE":0,"CLASSIFICATION_TYPE":"U","NORAD_CAT_ID":54646,"ELEMENT_SET_NO":999,"REV_AT_EPOCH":15842,"BSTAR":-0.00015680715,"MEAN_MOTION_DOT":-5.2e-7,"MEAN_MOTION_DDOT":0},{"OBJECT_NAME":"COSMOS 970 DEB","OBJECT_ID":"1977-121D","EPOCH":"2026-03-09T13:50:02.700096","MEAN_MOTION":13.36757633,"ECCENTRICITY":0.0084617,"INCLINATION":65.8696,"RA_OF_ASC_NODE":139.2268,"ARG_OF_PERICENTER":134.762,"MEAN_ANOMALY":336.3173,"EPHEMERIS_TYPE":0,"CLASSIFICATION_TYPE":"U","NORAD_CAT_ID":10562,"ELEMENT_SET_NO":999,"REV_AT_EPOCH":34819,"BSTAR":0.00039332,"MEAN_MOTION_DOT":1.36e-6,"MEAN_MOTION_DDOT":0}]
